NORAD_CAT_ID,OBJECT_NAME,OBJECT_TYPE,EPOCH,MEAN_MOTION,ECCENTRICITY,INCLINATION,RA_OF_ASC_NODE,ARG_OF_PERICENTER,MEAN_ANOMALY,BSTAR,MEAN_MOTION_DOT,MEAN_MOTION_DDOT,TLE_LINE0,TLE_LINE1,TLE_LINE2,SEMIMAJOR_AXIS,PERIOD,APOGEE,PERIGEE,DECAYED
51746.0,STARLINK-3502,PAYLOAD,2023-10-29 04:54:36,15.08859262,0.0001301,53.2161,220.9748,79.8344,280.2794,0.0011601,0.00018233,0.0,0 STARLINK-3502,1 51746U 22016AJ  23302.20459128  .00018233  00000-0  11601-2 0  9993,2 51746  53.2161 220.9748 0001301  79.8344 280.2794 15.08859262 93498,6917.822,95.436,540.587,538.787,0.0
51746.0,STARLINK-3502,PAYLOAD,2023-10-29 19:13:05,15.08836474,0.0001191,53.2184,218.301,90.83,269.2829,1.9888e-05,2.9e-07,0.0,0 STARLINK-3502,1 51746U 22016AJ  23302.80075530  .00000029  00000-0  19888-4 0  9991,2 51746  53.2184 218.3010 0001191  90.8300 269.2829 15.08836474 94709,6917.891,95.438,540.58,538.932,0.0
51746.0,STARLINK-3502,PAYLOAD,2023-10-29 22:23:51,15.08842279,0.0001344,53.2179,217.7037,99.2213,260.8931,0.00020813,3.026e-05,0.0,0 STARLINK-3502,1 51746U 22016AJ  23302.93323430  .00003026  00000-0  20813-3 0  9999,2 51746  53.2179 217.7037 0001344  99.2213 260.8931 15.08842279 93600,6917.873,95.437,540.668,538.809,0.0
51746.0,STARLINK-3502,PAYLOAD,2023-10-30 04:45:23,15.08851357,0.0001177,53.2177,216.515,96.4737,263.6389,0.00069668,0.00010821,0.0,0 STARLINK-3502,1 51746U 22016AJ  23303.19819238  .00010821  00000-0  69668-3 0  9996,2 51746  53.2177 216.5150 0001177  96.4737 263.6389 15.08851357 94768,6917.846,95.437,540.525,538.896,0.0
51746.0,STARLINK-3502,PAYLOAD,2023-10-30 11:06:56,15.08835411,0.0001098,53.2176,215.3255,88.8826,271.2292,0.00020482,2.973e-05,0.0,0 STARLINK-3502,1 51746U 22016AJ  23303.46315722  .00002973  00000-0  20482-3 0  9995,2 51746  53.2176 215.3255 0001098  88.8826 271.2292 15.08835411 94802,6917.894,95.438,540.519,539.0,0.0
51746.0,STARLINK-3502,PAYLOAD,2023-10-30 22:14:38,15.08834275,0.0001019,53.2169,213.2455,95.2739,264.837,0.00017936,2.567e-05,0.0,0 STARLINK-3502,1 51746U 22016AJ  23303.92684021  .00002567  00000-0  17936-3 0  9996,2 51746  53.2169 213.2455 0001019  95.2739 264.8370 15.08834275 93756,6917.898,95.438,540.468,539.058,0.0
51746.0,STARLINK-3502,PAYLOAD,2023-10-31 10:57:44,15.08842257,0.0001258,53.2172,210.8668,86.7042,273.4094,0.00060151,9.299e-05,0.0,0 STARLINK-3502,1 51746U 22016AJ  23304.45676175  .00009299  00000-0  60151-3 0  9992,2 51746  53.2172 210.8668 0001258  86.7042 273.4094 15.08842257 93833,6917.873,95.437,540.609,538.868,0.0
51746.0,STARLINK-3502,PAYLOAD,2023-10-31 22:05:26,15.08843752,0.0001247,53.217,208.7861,89.8574,270.2561,0.00030505,4.571e-05,0.0,0 STARLINK-3502,1 51746U 22016AJ  23304.92044113  .00004571  00000-0  30505-3 0  9993,2 51746  53.2170 208.7861 0001247  89.8574 270.2561 15.08843752 93907,6917.869,95.437,540.597,538.871,0.0
51746.0,STARLINK-3502,PAYLOAD,2023-11-01 02:51:35,15.08848907,0.000128,53.2167,207.893,85.6055,274.5083,0.00047796,7.329e-05,0.0,0 STARLINK-3502,1 51746U 22016AJ  23305.11915988  .00007329  00000-0  47796-3 0  9996,2 51746  53.2167 207.8930 0001280  85.6055 274.5083 15.08848907 95056,6917.853,95.437,540.604,538.833,0.0
51746.0,STARLINK-3502,PAYLOAD,2023-11-01 10:48:31,15.08847122,0.0001158,53.2159,206.407,89.5973,270.5152,0.00027034,4.018e-05,0.0,0 STARLINK-3502,1 51746U 22016AJ  23305.45035889  .00004018  00000-0  27034-3 0  9991,2 51746  53.2159 206.4070 0001158  89.5973 270.5152 15.08847122 93984,6917.859,95.437,540.525,538.923,0.0
51746.0,STARLINK-3502,PAYLOAD,2023-11-01 21:56:13,15.08842144,0.0001343,53.2169,204.3238,91.8677,268.2469,0.00013566,1.872e-05,0.0,0 STARLINK-3502,1 51746U 22016AJ  23305.91404038  .00001872  00000-0  13566-3 0  9998,2 51746  53.2169 204.3238 0001343  91.8677 268.2469 15.08842144 94054,6917.874,95.437,540.668,538.81,0.0
51746.0,STARLINK-3502,PAYLOAD,2023-11-02 01:06:59,15.08845282,0.000124,53.2164,203.7304,90.455,269.6584,0.00014195,1.972e-05,0.0,0 STARLINK-3502,1 51746U 22016AJ  23306.04651851  .00001972  00000-0  14195-3 0  9990,2 51746  53.2164 203.7304 0001240  90.4550 269.6584 15.08845282 95192,6917.864,95.437,540.587,538.871,0.0
51746.0,STARLINK-3502,PAYLOAD,2023-11-02 10:39:18,15.08840613,0.000136,53.2168,201.9456,86.5756,273.5391,5.8729e-05,6.47e-06,0.0,0 STARLINK-3502,1 51746U 22016AJ  23306.44396112  .00000647  00000-0  58729-4 0  9990,2 51746  53.2168 201.9456 0001360  86.5756 273.5391 15.08840613 94137,6917.879,95.438,540.684,538.803,0.0
51746.0,STARLINK-3502,PAYLOAD,2023-11-02 21:47:00,15.08840312,0.0001459,53.2166,199.8638,86.3177,273.7982,7.672e-05,9.33e-06,0.0,0 STARLINK-3502,1 51746U 22016AJ  23306.90764193  .00000933  00000-0  76720-4 0  9998,2 51746  53.2166 199.8638 0001459  86.3177 273.7982 15.08840312 94208,6917.879,95.438,540.754,538.735,0.0
51746.0,STARLINK-3502,PAYLOAD,2023-11-03 10:30:05,15.08842609,0.0001351,53.2161,197.4829,95.92,264.1946,0.0001387,1.92e-05,0.0,0 STARLINK-3502,1 51746U 22016AJ  23307.43756034  .00001920  00000-0  13870-3 0  9995,2 51746  53.2161 197.4829 0001351  95.9200 264.1946 15.08842609 94286,6917.872,95.437,540.672,538.803,0.0
51746.0,STARLINK-3502,PAYLOAD,2023-11-03 20:02:24,15.08843884,0.0001477,53.2161,195.6985,96.6537,263.4623,0.00016718,2.374e-05,0.0,0 STARLINK-3502,1 51746U 22016AJ  23307.83500041  .00002374  00000-0  16718-3 0  9992,2 51746  53.2161 195.6985 0001477  96.6537 263.4623 15.08843884 95460,6917.869,95.437,540.755,538.712,0.0
51746.0,STARLINK-3502,PAYLOAD,2023-11-03 23:13:10,15.08848339,0.0001295,53.2156,195.1065,97.444,262.67,0.00022831,3.348e-05,0.0,0 STARLINK-3502,1 51746U 22016AJ  23307.96747849  .00003348  00000-0  22831-3 0  9990,2 51746  53.2156 195.1065 0001295  97.4440 262.6700 15.08848339 94363,6917.855,95.437,540.616,538.824,0.0
51746.0,STARLINK-3502,PAYLOAD,2023-11-04 10:20:52,15.08841552,0.0001587,53.2165,193.0224,103.9224,256.1944,0.00011221,1.498e-05,0.0,0 STARLINK-3502,1 51746U 22016AJ  23308.43116038  .00001498  00000-0  11221-3 0  9998,2 51746  53.2165 193.0224 0001587 103.9224 256.1944 15.08841552 94430,6917.876,95.437,540.839,538.643,0.0
51746.0,STARLINK-3502,PAYLOAD,2023-11-04 23:03:57,15.088479,0.0001564,53.2169,190.6459,91.6996,268.4175,0.0002199,3.214e-05,0.0,0 STARLINK-3502,1 51746U 22016AJ  23308.96107914  .00003214  00000-0  21990-3 0  9991,2 51746  53.2169 190.6459 0001564  91.6996 268.4175 15.08847900 94515,6917.856,95.437,540.803,538.639,0.0
51746.0,STARLINK-3502,PAYLOAD,2023-11-05 02:14:43,15.08853694,0.0001637,53.2174,190.0508,92.4737,267.6443,0.00029296,4.379e-05,0.0,0 STARLINK-3502,1 51746U 22016AJ  23309.09355652  .00004379  00000-0  29296-3 0  9990,2 51746  53.2174 190.0508 0001637  92.4737 267.6443 15.08853694 95655,6917.839,95.437,540.836,538.571,0.0
51746.0,STARLINK-3502,PAYLOAD,2023-11-05 22:54:43,15.08889816,0.00014,53.2158,186.1847,100.8981,259.2168,0.0014407,0.00022746,0.0,0 STARLINK-3502,1 51746U 22016AJ  23309.95466447  .00022746  00000-0  14407-2 0  9995,2 51746  53.2158 186.1847 0001400 100.8981 259.2168 15.08889816 94668,6917.728,95.434,540.562,538.625,0.0
51746.0,STARLINK-3502,PAYLOAD,2023-11-06 02:05:28,15.088971,0.0001404,53.2158,185.5893,100.2815,259.8336,0.001509,0.00023847,0.0,0 STARLINK-3502,1 51746U 22016AJ  23310.08713931  .00023847  00000-0  15090-2 0  9996,2 51746  53.2158 185.5893 0001404 100.2815 259.8336 15.08897100 95801,6917.706,95.434,540.542,538.6,0.0
51746.0,STARLINK-3502,PAYLOAD,2023-11-06 08:27:01,15.08867821,0.0001525,53.2165,184.4016,85.286,274.8306,0.00036095,5.466e-05,0.0,0 STARLINK-3502,1 51746U 22016AJ  23310.35209915  .00005466  00000-0  36095-3 0  9994,2 51746  53.2165 184.4016 0001525  85.2860 274.8306 15.08867821 95845,6917.795,95.436,540.715,538.605,0.0
51746.0,STARLINK-3502,PAYLOAD,2023-11-06 19:34:43,15.0882209,0.0001239,53.2165,182.3212,95.0434,265.07,-0.00095329,-0.0001542,0.0,0 STARLINK-3502,1 51746U 22016AJ  23310.81578700 -.00015420  00000-0 -95329-3 0  9994,2 51746  53.2165 182.3212 0001239  95.0434 265.0700 15.08822090 95915,6917.935,95.439,540.657,538.943,0.0
51746.0,STARLINK-3502,PAYLOAD,2023-11-06 22:45:30,15.08792687,0.000134,53.2165,181.7248,90.649,269.4656,-0.0016632,-0.00026626,0.0,0 STARLINK-3502,1 51746U 22016AJ  23310.94827477 -.00026626  00000-0 -16632-2 0  9995,2 51746  53.2165 181.7248 0001340  90.6490 269.4656 15.08792687 94817,6918.025,95.441,540.817,538.963,0.0
51746.0,STARLINK-3502,PAYLOAD,2023-11-07 00:20:54,15.0878968,0.0001156,53.2157,181.4262,88.3644,271.7481,-0.0014878,-0.00023855,0.0,0 STARLINK-3502,1 51746U 22016AJ  23311.01451714 -.00023855  00000-0 -14878-2 0  9992,2 51746  53.2157 181.4262 0001156  88.3644 271.7481 15.08789680 95947,6918.034,95.441,540.699,539.099,0.0
51746.0,STARLINK-3502,PAYLOAD,2023-11-07 08:17:51,15.08788378,0.0001335,53.2158,179.9406,95.9402,264.1742,-0.00024722,-4.215e-05,0.0,0 STARLINK-3502,1 51746U 22016AJ  23311.34573092 -.00004215  00000-0 -24722-3 0  9991,2 51746  53.2158 179.9406 0001335  95.9402 264.1742 15.08788378 95999,6918.038,95.441,540.827,538.98,0.0
51746.0,STARLINK-3502,PAYLOAD,2023-11-08 01:47:08,15.08791567,0.0001625,53.2155,176.6706,85.0432,275.0746,0.00022193,3.241e-05,0.0,0 STARLINK-3502,1 51746U 22016AJ  23312.07439855  .00003241  00000-0  22193-3 0  9996,2 51746  53.2155 176.6706 0001625  85.0432 275.0746 15.08791567 94985,6918.028,95.441,541.018,538.769,0.0
51746.0,STARLINK-3502,PAYLOAD,2023-11-08 19:16:23,15.08844345,0.0001921,53.2156,173.4054,40.9366,319.177,0.0014161,0.00022324,0.0,0 STARLINK-3502,1 51746U 22016AJ  23312.80304501  .00022324  00000-0  14161-2 0  9994,2 51746  53.2156 173.4054 0001921  40.9366 319.1770 15.08844345 96210,6917.867,95.437,541.061,538.403,0.0
51746.0,STARLINK-3502,PAYLOAD,2023-11-08 22:27:08,15.08860564,0.0001408,53.2151,172.8054,89.4958,270.6196,0.0017741,0.00028076,0.0,0 STARLINK-3502,1 51746U 22016AJ  23312.93552007  .00028076  00000-0  17741-2 0  9991,2 51746  53.2151 172.8054 0001408  89.4958 270.6196 15.08860564 95115,6917.818,95.436,540.657,538.709,0.0
